[{"OBJECT_NAME":"STARLINK-4402","OBJECT_ID":"2022-099AW","EPOCH":"2026-03-09T22:18:27.532512","MEAN_MOTION":15.01261175,"ECCENTRICITY":0.00033134,"INCLINATION":97.6025,"RA_OF_ASC_NODE":190.4528,"ARG_OF_PERICENTER":77.792,"MEAN_ANOMALY":282.3676,"EPHEMERIS_TYPE":0,"CLASSIFICATION_TYPE":"U","NORAD_CAT_ID":53509,"ELEMENT_SET_NO":999,"REV_AT_EPOCH":19602,"BSTAR":9.353915e-6,"MEAN_MOTION_DOT":6.2e-7,"MEAN_MOTION_DDOT":0},{"OBJECT_NAME":"ICEYE-X51","OBJECT_ID":"2025-052AZ","EPOCH":"2026-03-09T22:06:54.407520","MEAN_MOTION":15.00892494,"ECCENTRICITY":0.00020982,"INCLINATION":97.7349,"RA_OF_ASC_NODE":324.3635,"ARG_OF_PERICENTER":65.1031,"MEAN_ANOMALY":295.041,"EPHEMERIS_TYPE":0,"CLASSIFICATION_TYPE":"U","NORAD_CAT_ID":63257,"ELEMENT_SET_NO":999,"REV_AT_EPOCH":5391,"BSTAR":0.00046355347,"MEAN_MOTION_DOT":5.842e-5,"MEAN_MOTION_DDOT":0}]
